[
    {
        "Altitude(m)": 604969.0890920345,
        "Argument of Periapsis(deg)": 0.0,
        "Eccentricity": 0.0,
        "Inclination(deg)": 60.0,
        "Latitude(deg)": -0.0926237129136571,
        "Longitude(deg)": 14.977527790561686,
        "Mean Anomaly(deg)": 0.0,
        "RAAN(deg)": 114.99999999999999,
        "Satellite Name": "Test1 506",
        "Satellite Number": 506,
        "Semi-Major Axis(m)": 6980739.136638005,
        "Time(s)": 0
    },
    {
        "Altitude(m)": 604900.0288500612,
        "Argument of Periapsis(deg)": 0.00010418945913296404,
        "Eccentricity": 0.0,
        "Inclination(deg)": 60.0,
        "Latitude(deg)": 0.4478027258337289,
        "Longitude(deg)": 15.245649738170782,
        "Mean Anomaly(deg)": 0.6201061454618275,
        "RAAN(deg)": 114.99957995086024,
        "Satellite Name": "Test1 506",
        "Satellite Number": 506,
        "Semi-Major Axis(m)": 6980739.136638005,
        "Time(s)": 10
    }
]